[{"OBJECT_NAME":"STARLINK-33978","OBJECT_ID":"2025-092AE","EPOCH":"2026-03-09T08:16:03.375264","MEAN_MOTION":15.27573,"ECCENTRICITY":0.00048865,"INCLINATION":43.0046,"RA_OF_ASC_NODE":174.3492,"ARG_OF_PERICENTER":149.0679,"MEAN_ANOMALY":211.0462,"EPHEMERIS_TYPE":0,"CLASSIFICATION_TYPE":"U","NORAD_CAT_ID":63832,"ELEMENT_SET_NO":999,"REV_AT_EPOCH":4861,"BSTAR":0.00089975218,"MEAN_MOTION_DOT":0.0002458,"MEAN_MOTION_DDOT":0},{"OBJECT_NAME":"PEGASUS R\/B","OBJECT_ID":"2007-015B","EPOCH":"2026-03-09T10:58:33.801024","MEAN_MOTION":15.26741121,"ECCENTRICITY":0.00105976,"INCLINATION":97.9168,"RA_OF_ASC_NODE":31.3919,"ARG_OF_PERICENTER":317.6341,"MEAN_ANOMALY":42.4077,"EPHEMERIS_TYPE":0,"CLASSIFICATION_TYPE":"U","NORAD_CAT_ID":31305,"ELEMENT_SET_NO":999,"REV_AT_EPOCH":3383,"BSTAR":0.00044093522,"MEAN_MOTION_DOT":0.00011537,"MEAN_MOTION_DDOT":0}]
